ONEWEB-0120             
1 47266U 20100J   24335.60764290 -.00000153  00000+0 -46071-3 0  9990
2 47266  87.8875 102.9025 0001394 107.5711 252.5570 13.12441077190802
ONEWEB-0121             
1 47267U 20100K   24335.59615682  .00000205  00000+0  53349-3 0  9991
2 47267  87.8868 102.8871 0001471  95.8505 264.2791 13.12441578190710
ONEWEB-0122             
1 47268U 20100L   24335.59113513  .00000324  00000+0  86414-3 0  9999
2 47268  87.8872 102.8933 0001353  99.2168 260.9114 13.12439780190621
ONEWEB-0123             
1 47269U 20100M   24335.66266814  .00000386  00000+0  10376-2 0  9992
2 47269  87.8876 102.8986 0001580 103.5759 256.5545 13.12444032190772
ONEWEB-0124             
1 47270U 20100N   24335.34634439  .00000393  00000+0  10569-2 0  9993
2 47270  87.8875 102.9586 0001642  93.4332 266.6984 13.12443451190619
ONEWEB-0125             
1 47271U 20100P   24334.40879133 -.00000093  00000+0 -29373-3 0  9995
2 47271  87.8874 103.1063 0001808 102.1958 257.9373 13.12444773190554
ONEWEB-0126             
1 47272U 20100Q   24335.34877831  .00000402  00000+0  10832-2 0  9994
2 47272  87.8872 102.9187 0001453 104.5277 255.6012 13.12441275190743
ONEWEB-0127             
1 47273U 20100R   24335.76806472 -.00001214  00000+0 -34110-2 0  9993
2 47273  87.8882 102.8692 0001186 100.6057 259.5205 13.12442563190828
